SENTINEL-3B             
1 43437U 18039A   26187.19489750  .00000114  00000+0  64969-4 0  9992
2 43437  98.6240 254.4537 0000946 117.9114 242.2162 14.26740326426832
SKYSAT-C1               
1 41601U 16040C   26187.03819040  .00010202  00000+0  28718-3 0  9995
2 41601  96.9555 217.7387 0001314  16.1910 343.9377 15.36639820560768
LAPAN-A3                
1 41603U 16040E   26187.24909640  .00003624  00000+0  11512-3 0  9990
2 41603  97.1499 182.7702 0008607 314.9664  45.0880 15.33237115557739
GAOFEN-3                
1 41727U 16049A   26187.30167424  .00000217  00000+0  78921-4 0  9992
2 41727  98.4013 194.7992 0001709  91.3354 268.8031 14.42218602521401
SKYSAT-C4               
1 41771U 16058B   26187.06776247  .00017787  00000+0  32748-3 0  9999
2 41771  96.9166 208.0555 0003011 132.9583 227.1922 15.49219019548395
SKYSAT-C5               
1 41772U 16058C   26187.07891071  .00008661  00000+0  25924-3 0  9993
2 41772  97.0456 226.8780 0002351 178.9118 181.2132 15.34757290546649
SKYSAT-C2               
1 41773U 16058D   26187.01017763  .00013487  00000+0  31260-3 0  9998
2 41773  97.0164 208.4005 0002646  26.2202 333.9180 15.42527357547950
SKYSAT-C3               
1 41774U 16058E   26187.08784370  .00024357  00000+0  38585-3 0  9996
2 41774  96.8997 217.2161 0001813 134.0548 226.0856 15.53401724549044
ALSAT-1B                
1 41785U 16059C   26187.33780441  .00000827  00000+0  13822-3 0  9995
2 41785  97.7752 195.2751 0009663 156.0157 204.1503 14.72291626523390
PATHFINDER 1            
1 41787U 16059E   26186.95322362  .00000707  00000+0  13155-3 0  9994
2 41787  97.8170 185.3828 0029309 144.0429 216.2757 14.67685972522467
SCATSAT 1               
1 41790U 16059H   26187.14954501  .00001450  00000+0  19634-3 0  9990
2 41790  98.1181 251.1107 0054540 185.5463 174.5151 14.79571879104397
GOKTURK 1A              
1 41875U 16073A   26187.26196330  .00000438  00000+0  95059-4 0  9992
2 41875  98.1222  81.6353 0001392  78.2228 281.9129 14.62789160511611
RESOURCESAT-2A          
1 41877U 16074A   26187.28518115 -.00000083  00000+0 -17742-4 0  9997
2 41877  98.7518 260.6334 0002883  46.9332 313.2087 14.21606422497012
CARTOSAT-2D             
1 41948U 17008A   26187.25896485  .00002653  00000+0  12910-3 0  9994
2 41948  97.4087 246.2081 0005189 165.1973 194.9415 15.19236617520473
SENTINEL-2B             
1 42063U 17013A   26187.29839683  .00000130  00000+0  66064-4 0  9998
2 42063  98.5682 261.8032 0001200  90.0409 270.0912 14.30813702487371
CARTOSAT-2E             
1 42767U 17036C   26187.27657166  .00002031  00000+0  99376-4 0  9990
2 42767  97.4259 246.7642 0002752 217.1009 143.0036 15.19322074501042
FORMOSAT-5              
1 42920U 17049A   26187.22465288  .00000178  00000+0  56129-4 0  9991
2 42920  98.2249 262.1111 0011933  30.6796 329.5094 14.50906079469434
SENTINEL-5P             
1 42969U 17064A   26187.30356654  .00000063  00000+0  50935-4 0  9998
2 42969  98.7927 129.2992 0001098  92.0399 268.0903 14.19522292452273
SKYSAT-C11              
1 42987U 17068A   26186.93561274  .00029636  00000+0  38259-3 0  9997
2 42987  97.4371 336.5978 0000516 160.6188 199.5088 15.58936903486160
SKYSAT-C10              
1 42988U 17068B   26187.26479583  .00011177  00000+0  33156-3 0  9998
2 42988  97.4531 324.3040 0001288 108.7243 251.4140 15.34990794485287
SKYSAT-C9               
1 42989U 17068C   26186.93073923  .00014539  00000+0  34186-3 0  9999
2 42989  97.4450 325.0820 0009245  74.3099 285.9167 15.42050982485646
SKYSAT-C8               
1 42990U 17068D   26186.88143119  .00011508  00000+0  31644-3 0  9999
2 42990  97.4548 323.7887 0001189  95.6373 264.5007 15.37361203485184
SKYSAT-C7               
1 42991U 17068E   26186.94071785  .00011320  00000+0  31159-3 0  9999
2 42991  97.4558 324.8394 0006499  51.1899 308.9925 15.37314822485255
SKYSAT-C6               
1 42992U 17068F   26186.86578995  .00010482  00000+0  31781-3 0  9995
2 42992  97.4595 324.6589 0005179 100.5381 259.6445 15.34304901485185
CARTOSAT-2F             
1 43111U 18004A   26187.30921201  .00003775  00000+0  18252-3 0  9997
2 43111  97.4771 246.7567 0001988 156.3207 203.8119 15.19224655470234
GAOFEN-1 02             
1 43259U 18031A   26187.27445591  .00001451  00000+0  21586-3 0  9992
2 43259  98.0512 249.7475 0001967 333.4828  26.6281 14.76465978445513
GAOFEN-1 03             
1 43260U 18031B   26187.32026912  .00000708  00000+0  10915-3 0  9990
2 43260  98.0508 249.6493 0003077  38.4724 321.6705 14.76453717445517
GAOFEN-1 04             
1 43262U 18031D   26187.29602159  .00001288  00000+0  19243-3 0  9998
2 43262  98.0513 249.8187 0001670  61.1489 298.9888 14.76465095445504
GAOFEN-5 01             
1 43461U 18043A   26187.24307952  .00000365  00000+0  85235-4 0  9990
2 43461  98.4582 159.2307 0002562  49.0922 311.0499 14.60619259434476
GAOFEN-6                
1 43484U 18048A   26187.31805563 -.00000374  00000+0 -46265-4 0  9991
2 43484  98.0955 249.9992 0012037 106.5495 253.7038 14.76374168436219
