OBJECT_NAME,OBJECT_ID,EPOCH,MEAN_MOTION,ECCENTRICITY,INCLINATION,RA_OF_ASC_NODE,ARG_OF_PERICENTER,MEAN_ANOMALY,EPHEMERIS_TYPE,CLASSIFICATION_TYPE,NORAD_CAT_ID,ELEMENT_SET_NO,REV_AT_EPOCH,BSTAR,MEAN_MOTION_DOT,MEAN_MOTION_DDOT
SKYSAT-C1,2016-040C,2026-07-06T00:54:59.650560,15.36639820,.0001314,96.9555,217.7387,16.1910,343.9377,0,U,41601,999,56076,.28717528E-3,.10202E-3,0
LAPAN-A3,2016-040E,2026-07-06T05:58:41.928960,15.33237115,.00086071,97.1499,182.7702,314.9664,45.0880,0,U,41603,999,55773,.11511649E-3,.3624E-4,0
GAOFEN-3,2016-049A,2026-07-06T07:14:24.654336,14.42218602,.00017091,98.4013,194.7992,91.3354,268.8031,0,U,41727,999,52140,.78921137E-4,.217E-5,0
SKYSAT-C4,2016-058B,2026-07-06T01:37:34.677408,15.49219019,.00030117,96.9166,208.0555,132.9583,227.1922,0,U,41771,999,54839,.32747926E-3,.17787E-3,0
SKYSAT-C5,2016-058C,2026-07-06T01:53:37.885344,15.34757290,.00023514,97.0456,226.8780,178.9118,181.2132,0,U,41772,999,54664,.25924167E-3,.8661E-4,0
SKYSAT-C2,2016-058D,2026-07-06T00:14:39.347232,15.42527357,.00026464,97.0164,208.4005,26.2202,333.9180,0,U,41773,999,54795,.31260088E-3,.13487E-3,0
SKYSAT-C3,2016-058E,2026-07-06T02:06:29.695680,15.53401724,.00018137,96.8997,217.2161,134.0548,226.0856,0,U,41774,999,54904,.38585149E-3,.24357E-3,0
ALSAT-1B,2016-059C,2026-07-06T08:06:26.301024,14.72291626,.00096634,97.7752,195.2751,156.0157,204.1503,0,U,41785,999,52339,.13822279E-3,.827E-5,0
PATHFINDER 1,2016-059E,2026-07-05T22:52:38.520768,14.67685972,.00293094,97.8170,185.3828,144.0429,216.2757,0,U,41787,999,52246,.13154799E-3,.707E-5,0
SCATSAT 1,2016-059H,2026-07-06T03:35:20.688864,14.79571879,.00545408,98.1181,251.1107,185.5463,174.5151,0,U,41790,999,10439,.19633807E-3,.145E-4,0
GOKTURK 1A,2016-073A,2026-07-06T06:17:13.629120,14.62789160,.00013922,98.1222,81.6353,78.2228,281.9129,0,U,41875,999,51161,.9505885E-4,.438E-5,0
RESOURCESAT-2A,2016-074A,2026-07-06T06:50:39.651360,14.21606422,.00028832,98.7518,260.6334,46.9332,313.2087,0,U,41877,999,49701,-.17741739E-4,-.83E-6,0
CARTOSAT-2D,2017-008A,2026-07-06T06:12:54.563040,15.19236617,.00051892,97.4087,246.2081,165.1973,194.9415,0,U,41948,999,52047,.12909629E-3,.2653E-4,0
SENTINEL-2B,2017-013A,2026-07-06T07:09:41.486112,14.30813702,.00012005,98.5682,261.8032,90.0409,270.0912,0,U,42063,999,48737,.6606448E-4,.13E-5,0
CARTOSAT-2E,2017-036C,2026-07-06T06:38:15.791424,15.19322074,.00027524,97.4259,246.7642,217.1009,143.0036,0,U,42767,999,50104,.99375928E-4,.2031E-4,0
FORMOSAT-5,2017-049A,2026-07-06T05:23:30.008832,14.50906079,.00119334,98.2249,262.1111,30.6796,329.5094,0,U,42920,999,46943,.56128985E-4,.178E-5,0
SENTINEL-5P,2017-064A,2026-07-06T07:17:08.149056,14.19522292,.00010986,98.7927,129.2992,92.0399,268.0903,0,U,42969,999,45227,.50934622E-4,.63E-6,0
SKYSAT-C11,2017-068A,2026-07-05T22:27:16.940736,15.58936903,.00005166,97.4371,336.5978,160.6188,199.5088,0,U,42987,999,48616,.38258779E-3,.29636E-3,0
SKYSAT-C10,2017-068B,2026-07-06T06:21:18.359712,15.34990794,.00012889,97.4531,324.3040,108.7243,251.4140,0,U,42988,999,48528,.33156238E-3,.11177E-3,0
SKYSAT-C9,2017-068C,2026-07-05T22:20:15.869472,15.42050982,.00092459,97.4450,325.0820,74.3099,285.9167,0,U,42989,999,48564,.34186347E-3,.14539E-3,0
SKYSAT-C8,2017-068D,2026-07-05T21:09:15.654816,15.37361203,.00011899,97.4548,323.7887,95.6373,264.5007,0,U,42990,999,48518,.31644411E-3,.11508E-3,0
SKYSAT-C7,2017-068E,2026-07-05T22:34:38.022240,15.37314822,.00064997,97.4558,324.8394,51.1899,308.9925,0,U,42991,999,48525,.3115875E-3,.1132E-3,0
SKYSAT-C6,2017-068F,2026-07-05T20:46:44.251680,15.34304901,.00051792,97.4595,324.6589,100.5381,259.6445,0,U,42992,999,48518,.31780523E-3,.10482E-3,0
CARTOSAT-2F,2018-004A,2026-07-06T07:25:15.917664,15.19224655,.00019887,97.4771,246.7567,156.3207,203.8119,0,U,43111,999,47023,.18252495E-3,.3775E-4,0
GAOFEN-1 02,2018-031A,2026-07-06T06:35:12.990624,14.76465978,.00019671,98.0512,249.7475,333.4828,26.6281,0,U,43259,999,44551,.21586392E-3,.1451E-4,0
GAOFEN-1 03,2018-031B,2026-07-06T07:41:11.251968,14.76453717,.00030777,98.0508,249.6493,38.4724,321.6705,0,U,43260,999,44551,.10915272E-3,.708E-5,0
GAOFEN-1 04,2018-031D,2026-07-06T07:06:16.265376,14.76465095,.00016709,98.0513,249.8187,61.1489,298.9888,0,U,43262,999,44550,.19243E-3,.1288E-4,0
SENTINEL-3B,2018-039A,2026-07-06T04:40:39.144000,14.26740326,.00009461,98.6240,254.4537,117.9114,242.2162,0,U,43437,999,42683,.64968842E-4,.114E-5,0
GAOFEN-5 01,2018-043A,2026-07-06T05:50:02.070528,14.60619259,.00025622,98.4582,159.2307,49.0922,311.0499,0,U,43461,999,43447,.85235085E-4,.365E-5,0
GAOFEN-6,2018-048A,2026-07-06T07:38:00.006432,14.76374168,.00120379,98.0955,249.9992,106.5495,253.7038,0,U,43484,999,43621,-.46264905E-4,-.374E-5,0
